{"type": "FeatureCollection", "features": [ {"type": "Feature", "properties": {"norad_id": 66600, "name": "STARLINK-35980", "group": "last-30-days", "lat": 42.15609407821866, "lon": -96.03784418645706, "alt_km": 433.0653579055852, "timestamp": "2025-12-18T07:01:53.340346+00:00", "meta": {"OBJECT_NAME": "STARLINK-35980", "OBJECT_ID": "2025-270N", "EPOCH": "2025-12-17T22:00:01.999584", "MEAN_MOTION": 15.44215341, "ECCENTRICITY": 0.00012504, "INCLINATION": 42.9993, "RA_OF_ASC_NODE": 162.4478, "ARG_OF_PERICENTER": 282.0555, "MEAN_ANOMALY": 244.8262, "EPHEMERIS_TYPE": 0, "CLASSIFICATION_TYPE": "U", "NORAD_CAT_ID": 66600, "ELEMENT_SET_NO": 999, "REV_AT_EPOCH": 513, "BSTAR": -0.048428722, "MEAN_MOTION_DOT": -0.02026345, "MEAN_MOTION_DDOT": 0}, "tle": {"line1": "1 66600U 25270N   25351.91668981 -.02026345  00000+0 -48429-1 0  9999", "line2": "2 66600  42.9993 162.4478 0001250 282.0555 244.8262 15.44215341  5130"}}, "geometry": {"type": "Point", "coordinates": [-96.03784418645706, 42.15609407821866]}}, {"type": "Feature", "properties": {"norad_id": 66601, "name": "STARLINK-35978", "group": "last-30-days", "lat": 1.2295417860249496, "lon": 161.82662142170878, "alt_km": 443.806256428481, "timestamp": "2025-12-18T07:01:53.340356+00:00", "meta": {"OBJECT_NAME": "STARLINK-35978", "OBJECT_ID": "2025-270P", "EPOCH": "2025-12-17T22:00:01.999584", "MEAN_MOTION": 15.40655259, "ECCENTRICITY": 0.00017481, "INCLINATION": 42.9988, "RA_OF_ASC_NODE": 162.6757, "ARG_OF_PERICENTER": 259.4078, "MEAN_ANOMALY": 172.9082, "EPHEMERIS_TYPE": 0, "CLASSIFICATION_TYPE": "U", "NORAD_CAT_ID": 66601, "ELEMENT_SET_NO": 999, "REV_AT_EPOCH": 507, "BSTAR": 0.0019405954, "MEAN_MOTION_DOT": 0.0008151, "MEAN_MOTION_DDOT": 0}, "tle": {"line1": "1 66601U 25270P   25351.91668981  .00081510  00000+0  19406-2 0  9995", "line2": "2 66601  42.9988 162.6757 0001748 259.4078 172.9082 15.40655259  5073"}}, "geometry": {"type": "Point", "coordinates": [161.82662142170878, 1.2295417860249496]}}, {"type": "Feature", "properties": {"norad_id": 66602, "name": "STARLINK-36050", "group": "last-30-days", "lat": -40.61800560767973, "lon": 93.70017348104857, "alt_km": 446.13311823019467, "timestamp": "2025-12-18T07:01:53.340368+00:00", "meta": {"OBJECT_NAME": "STARLINK-36050", "OBJECT_ID": "2025-270Q", "EPOCH": "2025-12-17T20:27:17.826624", "MEAN_MOTION": 15.40704238, "ECCENTRICITY": 0.00016634, "INCLINATION": 42.9989, "RA_OF_ASC_NODE": 163.2256, "ARG_OF_PERICENTER": 270.992, "MEAN_ANOMALY": 89.0746, "EPHEMERIS_TYPE": 0, "CLASSIFICATION_TYPE": "U", "NORAD_CAT_ID": 66602, "ELEMENT_SET_NO": 999, "REV_AT_EPOCH": 503, "BSTAR": 0.00065267272, "MEAN_MOTION_DOT": 0.00027061, "MEAN_MOTION_DDOT": 0}, "tle": {"line1": "1 66602U 25270Q   25351.85228966  .00027061  00000+0  65267-3 0  9992", "line2": "2 66602  42.9989 163.2256 0001663 270.9920  89.0746 15.40704238  5039"}}, "geometry": {"type": "Point", "coordinates": [93.70017348104857, -40.61800560767973]}}, {"type": "Feature", "properties": {"norad_id": 66603, "name": "STARLINK-36048", "group": "last-30-days", "lat": 25.490126841749234, "lon": -168.81017854042034, "alt_km": 440.3786176133244, "timestamp": "2025-12-18T07:01:53.340378+00:00", "meta": {"OBJECT_NAME": "STARLINK-36048", "OBJECT_ID": "2025-270R", "EPOCH": "2025-12-17T22:00:01.999584", "MEAN_MOTION": 15.40651368, "ECCENTRICITY": 0.0001407, "INCLINATION": 42.9991, "RA_OF_ASC_NODE": 162.5852, "ARG_OF_PERICENTER": 279.8908, "MEAN_ANOMALY": 189.7513, "EPHEMERIS_TYPE": 0, "CLASSIFICATION_TYPE": "U", "NORAD_CAT_ID": 66603, "ELEMENT_SET_NO": 999, "REV_AT_EPOCH": 513, "BSTAR": 0.0020695065, "MEAN_MOTION_DOT": 0.00086996, "MEAN_MOTION_DDOT": 0}, "tle": {"line1": "1 66603U 25270R   25351.91668981  .00086996  00000+0  20695-2 0  9992", "line2": "2 66603  42.9991 162.5852 0001407 279.8908 189.7513 15.40651368  5133"}}, "geometry": {"type": "Point", "coordinates": [-168.81017854042034, 25.490126841749234]}}, {"type": "Feature", "properties": {"norad_id": 66604, "name": "STARLINK-35977", "group": "last-30-days", "lat": 37.8078551367265, "lon": -143.2713247905785, "alt_km": 439.059692132927, "timestamp": "2025-12-18T07:01:53.340388+00:00", "meta": {"OBJECT_NAME": "STARLINK-35977", "OBJECT_ID": "2025-270S", "EPOCH": "2025-12-17T22:00:01.999584", "MEAN_MOTION": 15.4064154, "ECCENTRICITY": 0.0001925, "INCLINATION": 42.9991, "RA_OF_ASC_NODE": 162.5239, "ARG_OF_PERICENTER": 276.8145, "MEAN_ANOMALY": 217.7235, "EPHEMERIS_TYPE": 0, "CLASSIFICATION_TYPE": "U", "NORAD_CAT_ID": 66604, "ELEMENT_SET_NO": 999, "REV_AT_EPOCH": 523, "BSTAR": 0.0021124573, "MEAN_MOTION_DOT": 0.00088801, "MEAN_MOTION_DDOT": 0}, "tle": {"line1": "1 66604U 25270S   25351.91668981  .00088801  00000+0  21125-2 0  9999", "line2": "2 66604  42.9991 162.5239 0001925 276.8145 217.7235 15.40641540  5233"}}, "geometry": {"type": "Point", "coordinates": [-143.2713247905785, 37.8078551367265]}}, {"type": "Feature", "properties": {"norad_id": 66605, "name": "STARLINK-36052", "group": "last-30-days", "lat": 30.57040531623252, "lon": -59.15145871329634, "alt_km": 415.58990591849033, "timestamp": "2025-12-18T07:01:53.340397+00:00", "meta": {"OBJECT_NAME": "STARLINK-36052", "OBJECT_ID": "2025-270T", "EPOCH": "2025-12-17T13:26:50.242272", "MEAN_MOTION": 15.49687619, "ECCENTRICITY": 0.00016984, "INCLINATION": 42.9991, "RA_OF_ASC_NODE": 164.4677, "ARG_OF_PERICENTER": 286.8889, "MEAN_ANOMALY": 73.1785, "EPHEMERIS_TYPE": 0, "CLASSIFICATION_TYPE": "U", "NORAD_CAT_ID": 66605, "ELEMENT_SET_NO": 999, "REV_AT_EPOCH": 509, "BSTAR": -0.006954421, "MEAN_MOTION_DOT": -0.00377141, "MEAN_MOTION_DDOT": 0}, "tle": {"line1": "1 66605U 25270T   25351.56030373 -.00377141  00000+0 -69544-2 0  9996", "line2": "2 66605  42.9991 164.4677 0001698 286.8889  73.1785 15.49687619  5098"}}, "geometry": {"type": "Point", "coordinates": [-59.15145871329634, 30.57040531623252]}}, {"type": "Feature", "properties": {"norad_id": 66606, "name": "STARLINK-36063", "group": "last-30-days", "lat": 26.26373846985119, "lon": -51.80619967341143, "alt_km": 411.5125973411041, "timestamp": "2025-12-18T07:01:53.340407+00:00", "meta": {"OBJECT_NAME": "STARLINK-36063", "OBJECT_ID": "2025-270U", "EPOCH": "2025-12-17T19:36:40.845888", "MEAN_MOTION": 15.50585644, "ECCENTRICITY": 0.00017405, "INCLINATION": 42.9988, "RA_OF_ASC_NODE": 162.9533, "ARG_OF_PERICENTER": 270.0889, "MEAN_ANOMALY": 89.9771, "EPHEMERIS_TYPE": 0, "CLASSIFICATION_TYPE": "U", "NORAD_CAT_ID": 66606, "ELEMENT_SET_NO": 999, "REV_AT_EPOCH": 513, "BSTAR": 0.0009111551, "MEAN_MOTION_DOT": 0.00053491, "MEAN_MOTION_DDOT": 0}, "tle": {"line1": "1 66606U 25270U   25351.81713942  .00053491  00000+0  91116-3 0  9993", "line2": "2 66606  42.9988 162.9533 0001740 270.0889  89.9771 15.50585644  5134"}}, "geometry": {"type": "Point", "coordinates": [-51.80619967341143, 26.26373846985119]}}, {"type": "Feature", "properties": {"norad_id": 66607, "name": "STARLINK-35993", "group": "last-30-days", "lat": 28.771214577931094, "lon": -55.925495775264, "alt_km": 414.2856942866283, "timestamp": "2025-12-18T07:01:53.340417+00:00", "meta": {"OBJECT_NAME": "STARLINK-35993", "OBJECT_ID": "2025-270V", "EPOCH": "2025-12-17T21:10:10.071264", "MEAN_MOTION": 15.4965352, "ECCENTRICITY": 4.827e-05, "INCLINATION": 42.9987, "RA_OF_ASC_NODE": 162.5812, "ARG_OF_PERICENTER": 297.6657, "MEAN_ANOMALY": 62.4153, "EPHEMERIS_TYPE": 0, "CLASSIFICATION_TYPE": "U", "NORAD_CAT_ID": 66607, "ELEMENT_SET_NO": 999, "REV_AT_EPOCH": 504, "BSTAR": -0.005865625, "MEAN_MOTION_DOT": -0.00320009, "MEAN_MOTION_DDOT": 0}, "tle": {"line1": "1 66607U 25270V   25351.88206101 -.00320009  00000+0 -58656-2 0  9990", "line2": "2 66607  42.9987 162.5812 0000482 297.6657  62.4153 15.49653520  5047"}}, "geometry": {"type": "Point", "coordinates": [-55.925495775264, 28.771214577931094]}}, {"type": "Feature", "properties": {"norad_id": 66608, "name": "STARLINK-36036", "group": "last-30-days", "lat": 25.13393400936157, "lon": -50.06734056522845, "alt_km": 411.5725119407007, "timestamp": "2025-12-18T07:01:53.340427+00:00", "meta": {"OBJECT_NAME": "STARLINK-36036", "OBJECT_ID": "2025-270W", "EPOCH": "2025-12-17T19:36:11.240064", "MEAN_MOTION": 15.50588233, "ECCENTRICITY": 0.00017464, "INCLINATION": 42.9985, "RA_OF_ASC_NODE": 162.9504, "ARG_OF_PERICENTER": 267.6808, "MEAN_ANOMALY": 92.3852, "EPHEMERIS_TYPE": 0, "CLASSIFICATION_TYPE": "U", "NORAD_CAT_ID": 66608, "ELEMENT_SET_NO": 999, "REV_AT_EPOCH": 497, "BSTAR": 0.0012197406, "MEAN_MOTION_DOT": 0.00071899, "MEAN_MOTION_DDOT": 0}, "tle": {"line1": "1 66608U 25270W   25351.81679676  .00071899  00000+0  12197-2 0  9993", "line2": "2 66608  42.9985 162.9504 0001746 267.6808  92.3852 15.50588233  4976"}}, "geometry": {"type": "Point", "coordinates": [-50.06734056522845, 25.13393400936157]}}, {"type": "Feature", "properties": {"norad_id": 66609, "name": "STARLINK-36034", "group": "last-30-days", "lat": 23.9934933790619, "lon": -48.37315403401568, "alt_km": 411.6515510080344, "timestamp": "2025-12-18T07:01:53.340438+00:00", "meta": {"OBJECT_NAME": "STARLINK-36034", "OBJECT_ID": "2025-270X", "EPOCH": "2025-12-17T19:35:41.635104", "MEAN_MOTION": 15.50588305, "ECCENTRICITY": 0.00016777, "INCLINATION": 42.9986, "RA_OF_ASC_NODE": 162.9483, "ARG_OF_PERICENTER": 265.3211, "MEAN_ANOMALY": 94.7458, "EPHEMERIS_TYPE": 0, "CLASSIFICATION_TYPE": "U", "NORAD_CAT_ID": 66609, "ELEMENT_SET_NO": 999, "REV_AT_EPOCH": 497, "BSTAR": 0.0012673917, "MEAN_MOTION_DOT": 0.00074749, "MEAN_MOTION_DDOT": 0}, "tle": {"line1": "1 66609U 25270X   25351.81645411  .00074749  00000+0  12674-2 0  9991", "line2": "2 66609  42.9986 162.9483 0001677 265.3211  94.7458 15.50588305  4978"}}, "geometry": {"type": "Point", "coordinates": [-48.37315403401568, 23.9934933790619]}}]}